{
    "links": {
        "self": "http://www.neowsapp.com/rest/v1/neo/3650045?api_key=iIulBulltgU6a56xZRHN4H3l9WmuAYTsLGpBGhQ2"
    },
    "id": "3650045",
    "neo_reference_id": "3650045",
    "name": "(2013 TO69)",
    "designation": "2013 TO69",
    "nasa_jpl_url": "http://ssd.jpl.nasa.gov/sbdb.cgi?sstr=3650045",
    "absolute_magnitude_h": 25.8,
    "estimated_diameter": {
        "kilometers": {
            "estimated_diameter_min": 0.0183888672,
            "estimated_diameter_max": 0.0411187571
        },
        "meters": {
            "estimated_diameter_min": 18.388867207,
            "estimated_diameter_max": 41.1187571041
        },
        "miles": {
            "estimated_diameter_min": 0.0114263088,
            "estimated_diameter_max": 0.0255500032
        },
        "feet": {
            "estimated_diameter_min": 60.3309310875,
            "estimated_diameter_max": 134.9040630575
        }
    },
    "is_potentially_hazardous_asteroid": false,
    "close_approach_data": [
        {
            "close_approach_date": "2013-10-24",
            "close_approach_date_full": "2013-Oct-24 02:57",
            "epoch_date_close_approach": 1382583420000,
            "relative_velocity": {
                "kilometers_per_second": "7.5219321861",
                "kilometers_per_hour": "27078.9558698271",
                "miles_per_hour": "16825.8101070045"
            },
            "miss_distance": {
                "astronomical": "0.0531952775",
                "lunar": "20.6929629475",
                "kilometers": "7957900.208058925",
                "miles": "4944809.895406165"
            },
            "orbiting_body": "Earth"
        }
    ],
    "orbital_data": {
        "orbit_id": "11",
        "orbit_determination_date": "2017-04-06 08:44:14",
        "first_observation_date": "2013-10-08",
        "last_observation_date": "2013-11-08",
        "data_arc_in_days": 31,
        "observations_used": 41,
        "orbit_uncertainty": "7",
        "minimum_orbit_intersection": ".0438709",
        "jupiter_tisserand_invariant": "3.146",
        "epoch_osculation": "2459000.5",
        "eccentricity": ".5989216693177799",
        "semi_major_axis": "2.578230597251899",
        "inclination": ".5721755097162622",
        "ascending_node_longitude": "268.5043953946389",
        "orbital_period": "1512.101917156938",
        "perihelion_distance": "1.034072424059615",
        "perihelion_argument": "135.7264601327977",
        "aphelion_distance": "4.122388770444182",
        "perihelion_time": "2459622.193909637680",
        "mean_anomaly": "211.9876174151188",
        "mean_motion": ".2380791902419342",
        "equinox": "J2000",
        "orbit_class": {
            "orbit_class_type": "AMO",
            "orbit_class_description": "Near-Earth asteroid orbits similar to that of 1221 Amor",
            "orbit_class_range": "1.017 AU < q (perihelion) < 1.3 AU"
        }
    },
    "is_sentry_object": false
}